{
"type": "FeatureCollection",
"name": "memoy_polygon",
"features": [
{ "type": "Feature", "properties": { "id": 1, "start_point_id": 1, "end_point_id": 60 }, "geometry": { "type": "MultiPolygon", "coordinates": [ [ [ [ 120.64377, 31.417802 ], [ 120.644265, 31.418473 ], [ 120.644391, 31.418409 ], [ 120.643894, 31.417733 ] ] ] ] } },
{ "type": "Feature", "properties": { "id": 2, "start_point_id": 61, "end_point_id": 85 }, "geometry": { "type": "MultiPolygon", "coordinates": [ [ [ [ 120.644264, 31.418471 ], [ 120.644467, 31.418755 ], [ 120.644592, 31.418689 ], [ 120.644389, 31.418406 ] ] ] ] } },
{ "type": "Feature", "properties": { "id": 3, "start_point_id": 86, "end_point_id": 98 }, "geometry": { "type": "MultiPolygon", "coordinates": [ [ [ [ 120.644467, 31.418754 ], [ 120.644541, 31.418841 ], [ 120.644613, 31.418889 ], [ 120.644691, 31.418782 ], [ 120.644647, 31.418754 ], [ 120.644589, 31.418684 ] ] ] ] } },
{ "type": "Feature", "properties": { "id": 4, "start_point_id": 99, "end_point_id": 112 }, "geometry": { "type": "MultiPolygon", "coordinates": [ [ [ [ 120.644613495916317, 31.418889763024101 ], [ 120.644688, 31.418905 ], [ 120.644732, 31.418904 ], [ 120.644788, 31.41889 ], [ 120.644884, 31.418849 ], [ 120.644818, 31.418736 ], [ 120.64472, 31.418777 ], [ 120.644676, 31.418774 ], [ 120.644613495916317, 31.418889763024101 ] ] ] ] } },
{ "type": "Feature", "properties": { "id": 5, "start_point_id": 113, "end_point_id": 131 }, "geometry": { "type": "MultiPolygon", "coordinates": [ [ [ [ 120.644881, 31.41885 ], [ 120.645154, 31.418724 ], [ 120.64508, 31.418615 ], [ 120.644815, 31.418737 ] ] ] ] } },
{ "type": "Feature", "properties": { "id": 6, "start_point_id": 132, "end_point_id": 156 }, "geometry": { "type": "MultiPolygon", "coordinates": [ [ [ [ 120.645152, 31.418725 ], [ 120.645465, 31.418565 ], [ 120.645389, 31.418456 ], [ 120.645077, 31.418616 ] ] ] ] } },
{ "type": "Feature", "properties": { "id": 7, "start_point_id": 157, "end_point_id": 172 }, "geometry": { "type": "MultiPolygon", "coordinates": [ [ [ [ 120.645461, 31.418566 ], [ 120.645666, 31.418463 ], [ 120.645587, 31.418356 ], [ 120.645387, 31.418457 ] ] ] ] } },
{ "type": "Feature", "properties": { "id": 8, "start_point_id": 173, "end_point_id": 179 }, "geometry": { "type": "MultiPolygon", "coordinates": [ [ [ [ 120.645662, 31.418464 ], [ 120.645745, 31.418421 ], [ 120.645668, 31.418313 ], [ 120.645585, 31.418357 ] ] ] ] } },
{ "type": "Feature", "properties": { "id": 9, "start_point_id": 180, "end_point_id": 199 }, "geometry": { "type": "MultiPolygon", "coordinates": [ [ [ [ 120.645742, 31.418422 ], [ 120.646005, 31.418284 ], [ 120.645928, 31.418176 ], [ 120.645665, 31.418314 ] ] ] ] } },
{ "type": "Feature", "properties": { "id": 10, "start_point_id": 199, "end_point_id": 220 }, "geometry": { "type": "MultiPolygon", "coordinates": [ [ [ [ 120.646002, 31.418285 ], [ 120.646341, 31.418113 ], [ 120.646265, 31.418004 ], [ 120.645925, 31.418177 ] ] ] ] } },
{ "type": "Feature", "properties": { "id": 11, "start_point_id": 221, "end_point_id": 255 }, "geometry": { "type": "MultiPolygon", "coordinates": [ [ [ [ 120.646338, 31.418114 ], [ 120.64689, 31.417835 ], [ 120.646816, 31.417726 ], [ 120.646263, 31.418005 ] ] ] ] } },
{ "type": "Feature", "properties": { "id": 12, "start_point_id": 256, "end_point_id": 278 }, "geometry": { "type": "MultiPolygon", "coordinates": [ [ [ [ 120.646887, 31.417837 ], [ 120.6472, 31.417679 ], [ 120.647124, 31.41757 ], [ 120.646813, 31.417727 ] ] ] ] } },
{ "type": "Feature", "properties": { "id": 13, "start_point_id": 279, "end_point_id": 343 }, "geometry": { "type": "MultiPolygon", "coordinates": [ [ [ [ 120.647197, 31.41768 ], [ 120.64813, 31.4172 ], [ 120.648054, 31.417092 ], [ 120.647122, 31.417572 ] ] ] ] } },
{ "type": "Feature", "properties": { "id": 14, "start_point_id": 344, "end_point_id": 375 }, "geometry": { "type": "MultiPolygon", "coordinates": [ [ [ [ 120.648127, 31.417202 ], [ 120.648607, 31.416967 ], [ 120.648536, 31.416856 ], [ 120.648051, 31.417093 ] ] ] ] } },
{ "type": "Feature", "properties": { "id": 15, "start_point_id": 376, "end_point_id": 387 }, "geometry": { "type": "MultiPolygon", "coordinates": [ [ [ [ 120.648604, 31.416968 ], [ 120.648829, 31.416861 ], [ 120.648757, 31.416751 ], [ 120.648533, 31.416858 ] ] ] ] } },
{ "type": "Feature", "properties": { "id": 16, "start_point_id": 388, "end_point_id": 423 }, "geometry": { "type": "MultiPolygon", "coordinates": [ [ [ [ 120.648826, 31.416862 ], [ 120.649378, 31.416573 ], [ 120.649299, 31.416467 ], [ 120.648753, 31.416753 ] ] ] ] } },
{ "type": "Feature", "properties": { "id": 17, "start_point_id": 424, "end_point_id": 460 }, "geometry": { "type": "MultiPolygon", "coordinates": [ [ [ [ 120.649375, 31.416575 ], [ 120.650023, 31.416216 ], [ 120.649943, 31.416111 ], [ 120.649296, 31.416468 ] ] ] ] } },
{ "type": "Feature", "properties": { "id": 18, "start_point_id": 461, "end_point_id": 494 }, "geometry": { "type": "MultiPolygon", "coordinates": [ [ [ [ 120.650021, 31.416218 ], [ 120.650634, 31.415882 ], [ 120.650556, 31.415774 ], [ 120.64994, 31.416112 ] ] ] ] } },
{ "type": "Feature", "properties": { "id": 19, "start_point_id": 495, "end_point_id": 526 }, "geometry": { "type": "MultiPolygon", "coordinates": [ [ [ [ 120.650631, 31.415883 ], [ 120.651159, 31.4156 ], [ 120.651079, 31.415494 ], [ 120.650553, 31.415776 ] ] ] ] } },
{ "type": "Feature", "properties": { "id": 20, "start_point_id": 527, "end_point_id": 626 }, "geometry": { "type": "MultiPolygon", "coordinates": [ [ [ [ 120.651157, 31.415601 ], [ 120.651681, 31.415309 ], [ 120.65293, 31.414647 ], [ 120.652853, 31.414539 ], [ 120.651603, 31.415202 ], [ 120.651076, 31.415496 ] ] ] ] } },
{ "type": "Feature", "properties": { "id": 21, "start_point_id": 627, "end_point_id": 665 }, "geometry": { "type": "MultiPolygon", "coordinates": [ [ [ [ 120.652928, 31.414648 ], [ 120.653576, 31.414305 ], [ 120.653499, 31.414197 ], [ 120.65285, 31.414541 ] ] ] ] } },
{ "type": "Feature", "properties": { "id": 22, "start_point_id": 666, "end_point_id": 673 }, "geometry": { "type": "MultiPolygon", "coordinates": [ [ [ [ 120.653573, 31.414306 ], [ 120.653703, 31.414238 ], [ 120.653627, 31.41413 ], [ 120.653497, 31.414198 ] ] ] ] } },
{ "type": "Feature", "properties": { "id": 23, "start_point_id": 674, "end_point_id": 702 }, "geometry": { "type": "MultiPolygon", "coordinates": [ [ [ [ 120.653701, 31.414239 ], [ 120.654112, 31.414023 ], [ 120.654036, 31.413915 ], [ 120.653624, 31.414132 ] ] ] ] } },
{ "type": "Feature", "properties": { "id": 24, "start_point_id": 703, "end_point_id": 733 }, "geometry": { "type": "MultiPolygon", "coordinates": [ [ [ [ 120.65411, 31.414024 ], [ 120.654574, 31.413799 ], [ 120.654503, 31.413688 ], [ 120.654033, 31.413916 ] ] ] ] } },
{ "type": "Feature", "properties": { "id": 25, "start_point_id": 734, "end_point_id": 756 }, "geometry": { "type": "MultiPolygon", "coordinates": [ [ [ [ 120.654572, 31.4138 ], [ 120.654973, 31.413605 ], [ 120.654899, 31.413496 ], [ 120.6545, 31.413689 ] ] ] ] } },
{ "type": "Feature", "properties": { "id": 26, "start_point_id": 757, "end_point_id": 765 }, "geometry": { "type": "MultiPolygon", "coordinates": [ [ [ [ 120.654971, 31.413606 ], [ 120.655135, 31.413522 ], [ 120.65506, 31.413413 ], [ 120.654896, 31.413497 ] ] ] ] } },
{ "type": "Feature", "properties": { "id": 27, "start_point_id": 766, "end_point_id": 780 }, "geometry": { "type": "MultiPolygon", "coordinates": [ [ [ [ 120.655132, 31.413523 ], [ 120.655402, 31.413384 ], [ 120.655325, 31.413276 ], [ 120.655057, 31.413415 ] ] ] ] } },
{ "type": "Feature", "properties": { "id": 28, "start_point_id": 781, "end_point_id": 792 }, "geometry": { "type": "MultiPolygon", "coordinates": [ [ [ [ 120.6554, 31.413385 ], [ 120.655634, 31.413258 ], [ 120.655555, 31.413151 ], [ 120.655322, 31.413277 ] ] ] ] } },
{ "type": "Feature", "properties": { "id": 29, "start_point_id": 793, "end_point_id": 813 }, "geometry": { "type": "MultiPolygon", "coordinates": [ [ [ [ 120.655632, 31.413259 ], [ 120.656058, 31.413021 ], [ 120.655977, 31.412915 ], [ 120.655552, 31.413153 ] ] ] ] } },
{ "type": "Feature", "properties": { "id": 30, "start_point_id": 814, "end_point_id": 881 }, "geometry": { "type": "MultiPolygon", "coordinates": [ [ [ [ 120.656055, 31.413022 ], [ 120.656633, 31.412713 ], [ 120.657332, 31.412374 ], [ 120.657261, 31.412264 ], [ 120.656558, 31.412604 ], [ 120.655974, 31.412917 ] ] ] ] } },
{ "type": "Feature", "properties": { "id": 31, "start_point_id": 882, "end_point_id": 891 }, "geometry": { "type": "MultiPolygon", "coordinates": [ [ [ [ 120.65733, 31.412376 ], [ 120.657514, 31.412287 ], [ 120.657441, 31.412177 ], [ 120.657258, 31.412265 ] ] ] ] } },
{ "type": "Feature", "properties": { "id": 32, "start_point_id": 892, "end_point_id": 907 }, "geometry": { "type": "MultiPolygon", "coordinates": [ [ [ [ 120.657511, 31.412288 ], [ 120.657807, 31.412141 ], [ 120.657732, 31.412032 ], [ 120.657438, 31.412178 ] ] ] ] } },
{ "type": "Feature", "properties": { "id": 33, "start_point_id": 908, "end_point_id": 919 }, "geometry": { "type": "MultiPolygon", "coordinates": [ [ [ [ 120.657804, 31.412142 ], [ 120.657976, 31.412052 ], [ 120.657899, 31.411944 ], [ 120.657729, 31.412034 ] ] ] ] } },
{ "type": "Feature", "properties": { "id": 34, "start_point_id": 920, "end_point_id": 937 }, "geometry": { "type": "MultiPolygon", "coordinates": [ [ [ [ 120.657973, 31.412053 ], [ 120.658236, 31.411912 ], [ 120.658158, 31.411805 ], [ 120.657896, 31.411946 ] ] ] ] } },
{ "type": "Feature", "properties": { "id": 35, "start_point_id": 938, "end_point_id": 978 }, "geometry": { "type": "MultiPolygon", "coordinates": [ [ [ [ 120.658234, 31.411913 ], [ 120.658543, 31.41175 ], [ 120.65859, 31.411735 ], [ 120.658649, 31.41173 ], [ 120.658621622513806, 31.411571396351189 ], [ 120.658556413638891, 31.411600088256151 ], [ 120.658493, 31.411631 ], [ 120.658155, 31.411807 ], [ 120.658234, 31.411913 ] ] ] ] } },
{ "type": "Feature", "properties": { "id": 36, "start_point_id": 979, "end_point_id": 1014 }, "geometry": { "type": "MultiPolygon", "coordinates": [ [ [ [ 120.658637, 31.411731 ], [ 120.65876, 31.411754 ], [ 120.658874, 31.411805 ], [ 120.658947, 31.411868 ], [ 120.659018, 31.411969 ], [ 120.659147, 31.411908 ], [ 120.659062434508243, 31.411734418538476 ], [ 120.658981575503347, 31.411617042563627 ], [ 120.658908541563434, 31.411566179641195 ], [ 120.658780732168609, 31.411540096091226 ], [ 120.658694656453719, 31.411549225333715 ], [ 120.658622926691308, 31.411571396351189 ], [ 120.658637, 31.411731 ] ] ] ] } },
{ "type": "Feature", "properties": { "id": 37, "start_point_id": 1015, "end_point_id": 1027 }, "geometry": { "type": "MultiPolygon", "coordinates": [ [ [ [ 120.659016, 31.411965 ], [ 120.659114, 31.412142 ], [ 120.659248, 31.412089 ], [ 120.659146, 31.411907 ] ] ] ] } },
{ "type": "Feature", "properties": { "id": 38, "start_point_id": 1028, "end_point_id": 1040 }, "geometry": { "type": "MultiPolygon", "coordinates": [ [ [ [ 120.659112, 31.412139 ], [ 120.659197, 31.412304 ], [ 120.659332, 31.412254 ], [ 120.659247, 31.412087 ] ] ] ] } },
{ "type": "Feature", "properties": { "id": 39, "start_point_id": 1041, "end_point_id": 1051 }, "geometry": { "type": "MultiPolygon", "coordinates": [ [ [ [ 120.659196, 31.412301 ], [ 120.659279, 31.412467 ], [ 120.659414, 31.412418 ], [ 120.659331, 31.412251 ] ] ] ] } },
{ "type": "Feature", "properties": { "id": 40, "start_point_id": 1052, "end_point_id": 1195 }, "geometry": { "type": "MultiPolygon", "coordinates": [ [ [ [ 120.659278, 31.412465 ], [ 120.660584, 31.415046 ], [ 120.660718, 31.414995 ], [ 120.659413, 31.412415 ] ] ] ] } },
{ "type": "Feature", "properties": { "id": 41, "start_point_id": 1196, "end_point_id": 1210 }, "geometry": { "type": "MultiPolygon", "coordinates": [ [ [ [ 120.660582, 31.415043 ], [ 120.660719, 31.415311 ], [ 120.660854, 31.415261 ], [ 120.660717, 31.414992 ] ] ] ] } },
{ "type": "Feature", "properties": { "id": 42, "start_point_id": 1211, "end_point_id": 1231 }, "geometry": { "type": "MultiPolygon", "coordinates": [ [ [ [ 120.660718, 31.415309 ], [ 120.660875, 31.415617 ], [ 120.66101, 31.415566 ], [ 120.660853, 31.415258 ] ] ] ] } },
{ "type": "Feature", "properties": { "id": 43, "start_point_id": 1232, "end_point_id": 1255 }, "geometry": { "type": "MultiPolygon", "coordinates": [ [ [ [ 120.660874, 31.415614 ], [ 120.661066, 31.41599 ], [ 120.661201, 31.415939 ], [ 120.661009, 31.415564 ] ] ] ] } },
{ "type": "Feature", "properties": { "id": 44, "start_point_id": 1256, "end_point_id": 1292 }, "geometry": { "type": "MultiPolygon", "coordinates": [ [ [ [ 120.661065, 31.415988 ], [ 120.661385, 31.416581 ], [ 120.661517, 31.416525 ], [ 120.661199, 31.415936 ] ] ] ] } },
{ "type": "Feature", "properties": { "id": 45, "start_point_id": 1293, "end_point_id": 1301 }, "geometry": { "type": "MultiPolygon", "coordinates": [ [ [ [ 120.661384, 31.416579 ], [ 120.661461, 31.416712 ], [ 120.661592, 31.416654 ], [ 120.661516, 31.416523 ] ] ] ] } },
{ "type": "Feature", "properties": { "id": 46, "start_point_id": 1302, "end_point_id": 1315 }, "geometry": { "type": "MultiPolygon", "coordinates": [ [ [ [ 120.66146, 31.416709 ], [ 120.661577, 31.416908 ], [ 120.661708, 31.416851 ], [ 120.661591, 31.416652 ] ] ] ] } },
{ "type": "Feature", "properties": { "id": 47, "start_point_id": 1316, "end_point_id": 1325 }, "geometry": { "type": "MultiPolygon", "coordinates": [ [ [ [ 120.661575, 31.416905 ], [ 120.661656, 31.417046 ], [ 120.661788, 31.416991 ], [ 120.661707, 31.416849 ] ] ] ] } },
{ "type": "Feature", "properties": { "id": 48, "start_point_id": 1326, "end_point_id": 1337 }, "geometry": { "type": "MultiPolygon", "coordinates": [ [ [ [ 120.661655, 31.417044 ], [ 120.661746, 31.417206 ], [ 120.661879, 31.417153 ], [ 120.661787, 31.416988 ] ] ] ] } },
{ "type": "Feature", "properties": { "id": 49, "start_point_id": 1338, "end_point_id": 1358 }, "geometry": { "type": "MultiPolygon", "coordinates": [ [ [ [ 120.661744, 31.417204 ], [ 120.661884, 31.417476 ], [ 120.66202, 31.417426 ], [ 120.661878, 31.417151 ] ] ] ] } },
{ "type": "Feature", "properties": { "id": 50, "start_point_id": 1359, "end_point_id": 1382 }, "geometry": { "type": "MultiPolygon", "coordinates": [ [ [ [ 120.661883, 31.417473 ], [ 120.662036, 31.417785 ], [ 120.662171, 31.417734 ], [ 120.662018, 31.417423 ] ] ] ] } },
{ "type": "Feature", "properties": { "id": 51, "start_point_id": 1383, "end_point_id": 1391 }, "geometry": { "type": "MultiPolygon", "coordinates": [ [ [ [ 120.662036, 31.417784 ], [ 120.662105406656181, 31.417896331173619 ], [ 120.662231, 31.417816 ], [ 120.662169, 31.417729 ], [ 120.662036, 31.417784 ] ] ] ] } },
{ "type": "Feature", "properties": { "id": 52, "start_point_id": 1392, "end_point_id": 1399 }, "geometry": { "type": "MultiPolygon", "coordinates": [ [ [ [ 120.662104102478679, 31.417896657217995 ], [ 120.662153661223613, 31.417955997294168 ], [ 120.662211371077916, 31.417995122619118 ], [ 120.662311, 31.417871 ], [ 120.662227, 31.41781 ], [ 120.662104102478679, 31.417896657217995 ] ] ] ] } },
{ "type": "Feature", "properties": { "id": 53, "start_point_id": 1400, "end_point_id": 1413 }, "geometry": { "type": "MultiPolygon", "coordinates": [ [ [ [ 120.662211045033544, 31.417993818441619 ], [ 120.662279188307835, 31.418026096834705 ], [ 120.662355156647109, 31.418033921899692 ], [ 120.662482, 31.418026 ], [ 120.662475467021338, 31.417899917661742 ], [ 120.662387, 31.417893 ], [ 120.662302, 31.417865 ], [ 120.662211045033544, 31.417993818441619 ] ] ] ] } },
{ "type": "Feature", "properties": { "id": 54, "start_point_id": 1414, "end_point_id": 1435 }, "geometry": { "type": "MultiPolygon", "coordinates": [ [ [ [ 120.662480683731332, 31.418027401012203 ], [ 120.662586, 31.418012 ], [ 120.662831, 31.417956 ], [ 120.662787243031929, 31.417831545902263 ], [ 120.662566600066, 31.41788201062128 ], [ 120.662474, 31.417899 ], [ 120.662480683731332, 31.418027401012203 ] ] ] ] } },
{ "type": "Feature", "properties": { "id": 55, "start_point_id": 1436, "end_point_id": 1461 }, "geometry": { "type": "MultiPolygon", "coordinates": [ [ [ [ 120.662827, 31.417957 ], [ 120.663233, 31.417859 ], [ 120.663194, 31.417737 ], [ 120.662785560874624, 31.417831826261814 ], [ 120.662827, 31.417957 ] ] ] ] } },
{ "type": "Feature", "properties": { "id": 56, "start_point_id": 1462, "end_point_id": 1483 }, "geometry": { "type": "MultiPolygon", "coordinates": [ [ [ [ 120.66323, 31.41786 ], [ 120.6636, 31.417777 ], [ 120.663563, 31.417655 ], [ 120.663192, 31.417738 ] ] ] ] } },
{ "type": "Feature", "properties": { "id": 57, "start_point_id": 1484, "end_point_id": 1563 }, "geometry": { "type": "MultiPolygon", "coordinates": [ [ [ [ 120.663597, 31.417778 ], [ 120.66536, 31.417356 ], [ 120.66532, 31.417235 ], [ 120.66356, 31.417656 ] ] ] ] } },
{ "type": "Feature", "properties": { "id": 58, "start_point_id": 1564, "end_point_id": 1584 }, "geometry": { "type": "MultiPolygon", "coordinates": [ [ [ [ 120.665357, 31.417357 ], [ 120.665787, 31.417252 ], [ 120.665747, 31.417131 ], [ 120.665317, 31.417236 ] ] ] ] } },
{ "type": "Feature", "properties": { "id": 59, "start_point_id": 1585, "end_point_id": 1605 }, "geometry": { "type": "MultiPolygon", "coordinates": [ [ [ [ 120.665784, 31.417253 ], [ 120.666259, 31.417139 ], [ 120.666218, 31.417018 ], [ 120.665744, 31.417132 ] ] ] ] } },
{ "type": "Feature", "properties": { "id": 60, "start_point_id": 1606, "end_point_id": 1622 }, "geometry": { "type": "MultiPolygon", "coordinates": [ [ [ [ 120.666255, 31.41714 ], [ 120.666643, 31.417049 ], [ 120.666604, 31.416927 ], [ 120.666216, 31.417018 ] ] ] ] } },
{ "type": "Feature", "properties": { "id": 61, "start_point_id": 1623, "end_point_id": 1636 }, "geometry": { "type": "MultiPolygon", "coordinates": [ [ [ [ 120.66664, 31.41705 ], [ 120.666998, 31.416962 ], [ 120.666957, 31.416841 ], [ 120.666601, 31.416928 ] ] ] ] } },
{ "type": "Feature", "properties": { "id": 62, "start_point_id": 1637, "end_point_id": 1667 }, "geometry": { "type": "MultiPolygon", "coordinates": [ [ [ [ 120.666995, 31.416963 ], [ 120.667627, 31.416807 ], [ 120.667586, 31.416686 ], [ 120.666954, 31.416842 ] ] ] ] } },
{ "type": "Feature", "properties": { "id": 63, "start_point_id": 1668, "end_point_id": 1685 }, "geometry": { "type": "MultiPolygon", "coordinates": [ [ [ [ 120.667624, 31.416808 ], [ 120.667974, 31.416722 ], [ 120.667933, 31.4166 ], [ 120.667584, 31.416687 ] ] ] ] } },
{ "type": "Feature", "properties": { "id": 64, "start_point_id": 1686, "end_point_id": 1723 }, "geometry": { "type": "MultiPolygon", "coordinates": [ [ [ [ 120.667971, 31.416722 ], [ 120.668685054589403, 31.416550528676762 ], [ 120.668656652501653, 31.416431123981358 ], [ 120.66793, 31.416601 ], [ 120.667971, 31.416722 ] ] ] ] } },
{ "type": "Feature", "properties": { "id": 65, "start_point_id": 1724, "end_point_id": 1734 }, "geometry": { "type": "MultiPolygon", "coordinates": [ [ [ [ 120.668683895320513, 31.416551108311204 ], [ 120.668851, 31.416515 ], [ 120.668959, 31.416509 ], [ 120.66905557461773, 31.416520323391566 ], [ 120.669105905422811, 31.416381202964953 ], [ 120.668931, 31.416383 ], [ 120.668815, 31.416392 ], [ 120.668653754329441, 31.416431123981358 ], [ 120.668683895320513, 31.416551108311204 ] ] ] ] } },
{ "type": "Feature", "properties": { "id": 66, "start_point_id": 1735, "end_point_id": 1760 }, "geometry": { "type": "MultiPolygon", "coordinates": [ [ [ [ 120.669052, 31.41652 ], [ 120.669117, 31.416543 ], [ 120.669183, 31.416588 ], [ 120.669224, 31.416636 ], [ 120.669259, 31.416717 ], [ 120.669401, 31.416681 ], [ 120.669356, 31.41658 ], [ 120.669323703065032, 31.416478364188578 ], [ 120.669225237663909, 31.416410546958662 ], [ 120.669102644979063, 31.416381202964953 ], [ 120.669052, 31.41652 ] ] ] ] } },
{ "type": "Feature", "properties": { "id": 67, "start_point_id": 1761, "end_point_id": 1814 }, "geometry": { "type": "MultiPolygon", "coordinates": [ [ [ [ 120.669259, 31.416714 ], [ 120.669517, 31.417484 ], [ 120.669658, 31.417449 ], [ 120.6694, 31.416678 ] ] ] ] } },
{ "type": "Feature", "properties": { "id": 68, "start_point_id": 1815, "end_point_id": 1844 }, "geometry": { "type": "MultiPolygon", "coordinates": [ [ [ [ 120.669516, 31.417482 ], [ 120.669679, 31.417952 ], [ 120.66982, 31.417917 ], [ 120.669657, 31.417446 ] ] ] ] } },
{ "type": "Feature", "properties": { "id": 69, "start_point_id": 1845, "end_point_id": 1937 }, "geometry": { "type": "MultiPolygon", "coordinates": [ [ [ [ 120.669678, 31.41795 ], [ 120.670157, 31.419305 ], [ 120.67033, 31.419821 ], [ 120.670471, 31.419787 ], [ 120.670298, 31.419269 ], [ 120.669819, 31.417914 ] ] ] ] } },
{ "type": "Feature", "properties": { "id": 70, "start_point_id": 1938, "end_point_id": 1954 }, "geometry": { "type": "MultiPolygon", "coordinates": [ [ [ [ 120.670329, 31.419818 ], [ 120.670436, 31.420159 ], [ 120.670578, 31.420126 ], [ 120.670471, 31.419784 ] ] ] ] } },
{ "type": "Feature", "properties": { "id": 71, "start_point_id": 1955, "end_point_id": 1991 }, "geometry": { "type": "MultiPolygon", "coordinates": [ [ [ [ 120.670435, 31.420156 ], [ 120.670681, 31.420935 ], [ 120.670823, 31.4209 ], [ 120.670578, 31.420124 ] ] ] ] } },
{ "type": "Feature", "properties": { "id": 72, "start_point_id": 1992, "end_point_id": 2121 }, "geometry": { "type": "MultiPolygon", "coordinates": [ [ [ [ 120.67068, 31.420932 ], [ 120.671516, 31.423303 ], [ 120.671657, 31.423267 ], [ 120.670822, 31.420898 ] ] ] ] } },
{ "type": "Feature", "properties": { "id": 73, "start_point_id": 2122, "end_point_id": 2501 }, "geometry": { "type": "MultiPolygon", "coordinates": [ [ [ [ 120.671515, 31.423301 ], [ 120.672494, 31.426073 ], [ 120.673243, 31.428236 ], [ 120.673784, 31.429755 ], [ 120.673925, 31.429718 ], [ 120.673384, 31.428199 ], [ 120.672635, 31.426037 ], [ 120.671656, 31.423264 ] ] ] ] } },
{ "type": "Feature", "properties": { "id": 74, "start_point_id": 2502, "end_point_id": 2712 }, "geometry": { "type": "MultiPolygon", "coordinates": [ [ [ [ 120.673783, 31.429752 ], [ 120.674132, 31.430765 ], [ 120.674446, 31.431725 ], [ 120.674716, 31.432586 ], [ 120.675062, 31.433753 ], [ 120.675205, 31.433722 ], [ 120.674858, 31.432554 ], [ 120.674588, 31.431691 ], [ 120.674274, 31.43073 ], [ 120.673924, 31.429716 ] ] ] ] } },
{ "type": "Feature", "properties": { "id": 75, "start_point_id": 2713, "end_point_id": 2771 }, "geometry": { "type": "MultiPolygon", "coordinates": [ [ [ [ 120.675061, 31.43375 ], [ 120.675222, 31.434311 ], [ 120.675355, 31.434735 ], [ 120.675498, 31.434702 ], [ 120.675364, 31.434279 ], [ 120.675204, 31.43372 ] ] ] ] } },
{ "type": "Feature", "properties": { "id": 76, "start_point_id": 2772, "end_point_id": 2802 }, "geometry": { "type": "MultiPolygon", "coordinates": [ [ [ [ 120.675354, 31.434732 ], [ 120.675492, 31.435215 ], [ 120.675635, 31.435185 ], [ 120.675497, 31.4347 ] ] ] ] } },
{ "type": "Feature", "properties": { "id": 77, "start_point_id": 2803, "end_point_id": 2826 }, "geometry": { "type": "MultiPolygon", "coordinates": [ [ [ [ 120.675491, 31.435212 ], [ 120.67559, 31.435578 ], [ 120.675734, 31.435551 ], [ 120.675634, 31.435183 ] ] ] ] } },
{ "type": "Feature", "properties": { "id": 78, "start_point_id": 2827, "end_point_id": 2843 }, "geometry": { "type": "MultiPolygon", "coordinates": [ [ [ [ 120.675589, 31.435576 ], [ 120.675665, 31.435875 ], [ 120.675809, 31.435849 ], [ 120.675733, 31.435548 ] ] ] ] } },
{ "type": "Feature", "properties": { "id": 79, "start_point_id": 2844, "end_point_id": 2856 }, "geometry": { "type": "MultiPolygon", "coordinates": [ [ [ [ 120.675665, 31.435873 ], [ 120.675722, 31.436111 ], [ 120.675866, 31.436086 ], [ 120.675809, 31.435846 ] ] ] ] } },
{ "type": "Feature", "properties": { "id": 80, "start_point_id": 2857, "end_point_id": 2882 }, "geometry": { "type": "MultiPolygon", "coordinates": [ [ [ [ 120.675721, 31.436108 ], [ 120.675793, 31.436529 ], [ 120.675939, 31.436512 ], [ 120.675866, 31.436084 ] ] ] ] } },
{ "type": "Feature", "properties": { "id": 81, "start_point_id": 2883, "end_point_id": 2930 }, "geometry": { "type": "MultiPolygon", "coordinates": [ [ [ [ 120.675793, 31.436527 ], [ 120.675928, 31.437185 ], [ 120.676073, 31.437162 ], [ 120.675938, 31.436509 ] ] ] ] } },
{ "type": "Feature", "properties": { "id": 82, "start_point_id": 2931, "end_point_id": 2968 }, "geometry": { "type": "MultiPolygon", "coordinates": [ [ [ [ 120.675928, 31.437183 ], [ 120.676054, 31.437751 ], [ 120.676199, 31.437728 ], [ 120.676073, 31.437159 ] ] ] ] } },
{ "type": "Feature", "properties": { "id": 83, "start_point_id": 2969, "end_point_id": 3076 }, "geometry": { "type": "MultiPolygon", "coordinates": [ [ [ [ 120.676054, 31.437749 ], [ 120.676403, 31.439435 ], [ 120.676548, 31.439414 ], [ 120.676199, 31.437726 ] ] ] ] } },
{ "type": "Feature", "properties": { "id": 84, "start_point_id": 3077, "end_point_id": 3208 }, "geometry": { "type": "MultiPolygon", "coordinates": [ [ [ [ 120.676402, 31.439432 ], [ 120.676645, 31.440727 ], [ 120.676754, 31.441246 ], [ 120.676843273159704, 31.441666966536769 ], [ 120.677001, 31.441636 ], [ 120.676898, 31.441221 ], [ 120.67679, 31.440705 ], [ 120.676548, 31.439411 ], [ 120.676402, 31.439432 ] ] ] ] } },
{ "type": "Feature", "properties": { "id": 85, "start_point_id": 3209, "end_point_id": 3228 }, "geometry": { "type": "MultiPolygon", "coordinates": [ [ [ [ 120.676844090678728, 31.441666149017745 ], [ 120.676929112657234, 31.442037302654711 ], [ 120.677094, 31.442011 ], [ 120.677, 31.441633 ], [ 120.676844090678728, 31.441666149017745 ] ] ] ] } },
{ "type": "Feature", "properties": { "id": 86, "start_point_id": 3229, "end_point_id": 3274 }, "geometry": { "type": "MultiPolygon", "coordinates": [ [ [ [ 120.67693074769528, 31.442038120173738 ], [ 120.677102426690311, 31.442918588162758 ], [ 120.677284, 31.442884 ], [ 120.677094, 31.442009 ], [ 120.67693074769528, 31.442038120173738 ] ] ] ] } },
{ "type": "Feature", "properties": { "id": 87, "start_point_id": 3275, "end_point_id": 3335 }, "geometry": { "type": "MultiPolygon", "coordinates": [ [ [ [ 120.677103244209349, 31.442909595453489 ], [ 120.67721606183467, 31.443431172590905 ], [ 120.67735504006879, 31.444106443304857 ], [ 120.677518, 31.444088 ], [ 120.677401, 31.443409 ], [ 120.677284, 31.442882 ], [ 120.677103244209349, 31.442909595453489 ] ] ] ] } },
{ "type": "Feature", "properties": { "id": 88, "start_point_id": 3336, "end_point_id": 3370 }, "geometry": { "type": "MultiPolygon", "coordinates": [ [ [ [ 120.677350952473674, 31.444103990747784 ], [ 120.677464281048415, 31.444803582652717 ], [ 120.677626, 31.444782 ], [ 120.677518, 31.444086 ], [ 120.677350952473674, 31.444103990747784 ] ] ] ] } },
{ "type": "Feature", "properties": { "id": 89, "start_point_id": 3371, "end_point_id": 3446 }, "geometry": { "type": "MultiPolygon", "coordinates": [ [ [ [ 120.677463872288897, 31.444801130095644 ], [ 120.677750003947352, 31.44630413882156 ], [ 120.677925489457749, 31.446269861136138 ], [ 120.677625, 31.444779 ], [ 120.677463872288897, 31.444801130095644 ] ] ] ] } },
{ "type": "Feature", "properties": { "id": 90, "start_point_id": 3447, "end_point_id": 3516 }, "geometry": { "type": "MultiPolygon", "coordinates": [ [ [ [ 120.677749799567607, 31.446301686264491 ], [ 120.67801869765519, 31.447609544036833 ], [ 120.678240621934705, 31.447560720695339 ], [ 120.677926599079143, 31.446270600883736 ], [ 120.677749799567607, 31.446301686264491 ] ] ] ] } },
{ "type": "Feature", "properties": { "id": 91, "start_point_id": 3517, "end_point_id": 3525 }, "geometry": { "type": "MultiPolygon", "coordinates": [ [ [ [ 120.67801869765519, 31.44760066706565 ], [ 120.678042369578336, 31.447764891032495 ], [ 120.678256896381868, 31.447720506176591 ], [ 120.678234703953919, 31.447563679685732 ], [ 120.67801869765519, 31.44760066706565 ] ] ] ] } },
{ "type": "Feature", "properties": { "id": 92, "start_point_id": 3526, "end_point_id": 3562 }, "geometry": { "type": "MultiPolygon", "coordinates": [ [ [ [ 120.678039410587942, 31.447757493556512 ], [ 120.678148153484898, 31.448310085012519 ], [ 120.67834418659848, 31.448280495108584 ], [ 120.678265773353047, 31.447716067691001 ], [ 120.678039410587942, 31.447757493556512 ] ] ] ] } },
{ "type": "Feature", "properties": { "id": 93, "start_point_id": 3563, "end_point_id": 3578 }, "geometry": { "type": "MultiPolygon", "coordinates": [ [ [ [ 120.678151112475291, 31.448306386274528 ], [ 120.678189209476642, 31.448559379953178 ], [ 120.678390050949602, 31.448524981689854 ], [ 120.678347145588873, 31.448276796370592 ], [ 120.678151112475291, 31.448306386274528 ] ] ] ] } },
{ "type": "Feature", "properties": { "id": 94, "start_point_id": 3579, "end_point_id": 3636 }, "geometry": { "type": "MultiPolygon", "coordinates": [ [ [ [ 120.678188099855234, 31.448557900457978 ], [ 120.678270951586256, 31.448915938295599 ], [ 120.678361200793233, 31.449319840484328 ], [ 120.678563151887587, 31.449267318404843 ], [ 120.678464765457036, 31.448881909906074 ], [ 120.678390790697193, 31.448522392573256 ], [ 120.678188099855234, 31.448557900457978 ] ] ] ] } },
{ "type": "Feature", "properties": { "id": 95, "start_point_id": 3637, "end_point_id": 3778 }, "geometry": { "type": "MultiPolygon", "coordinates": [ [ [ [ 120.678361940540853, 31.449321319979518 ], [ 120.678757705505987, 31.450743114863627 ], [ 120.678886236651238, 31.451108180303436 ], [ 120.679050645554966, 31.45106601469033 ], [ 120.678937464172407, 31.450703168493316 ], [ 120.678563891635193, 31.449268797900039 ], [ 120.678361940540853, 31.449321319979518 ] ] ] ] } },
{ "type": "Feature", "properties": { "id": 96, "start_point_id": 3779, "end_point_id": 3795 }, "geometry": { "type": "MultiPolygon", "coordinates": [ [ [ [ 120.678885866777449, 31.45110633093444 ], [ 120.678962430653726, 31.45132529622358 ], [ 120.679118517396986, 31.451289233528158 ], [ 120.679049350996664, 31.451063240636834 ], [ 120.678885866777449, 31.45110633093444 ] ] ] ] } },
{ "type": "Feature", "properties": { "id": 97, "start_point_id": 3796, "end_point_id": 3816 }, "geometry": { "type": "MultiPolygon", "coordinates": [ [ [ [ 120.678960766221635, 31.451321782422486 ], [ 120.679041583646736, 31.451586057252012 ], [ 120.67919785532689, 31.451549624682787 ], [ 120.679117777649395, 31.451286829348462 ], [ 120.678960766221635, 31.451321782422486 ] ] ] ] } },
{ "type": "Feature", "properties": { "id": 98, "start_point_id": 3817, "end_point_id": 3890 }, "geometry": { "type": "MultiPolygon", "coordinates": [ [ [ [ 120.679040658962236, 31.451583098261619 ], [ 120.679335448380172, 31.45259266879653 ], [ 120.679493384492432, 31.452558270533213 ], [ 120.679197485453088, 31.451548884935189 ], [ 120.679040658962236, 31.451583098261619 ] ] ] ] } },
{ "type": "Feature", "properties": { "id": 99, "start_point_id": 3891, "end_point_id": 3907 }, "geometry": { "type": "MultiPolygon", "coordinates": [ [ [ [ 120.679333968884976, 31.452590079679943 ], [ 120.679411642382803, 31.452837525251606 ], [ 120.679566989378472, 31.452800167997886 ], [ 120.679492274871038, 31.452555311542817 ], [ 120.679333968884976, 31.452590079679943 ] ] ] ] } },
{ "type": "Feature", "properties": { "id": 100, "start_point_id": 3908, "end_point_id": 3979 }, "geometry": { "type": "MultiPolygon", "coordinates": [ [ [ [ 120.679410902635212, 31.452837525251606 ], [ 120.679762, 31.453856 ], [ 120.679904, 31.453821 ], [ 120.679566989378472, 31.452800167997886 ], [ 120.679410902635212, 31.452837525251606 ] ] ] ] } },
{ "type": "Feature", "properties": { "id": 101, "start_point_id": 3979, "end_point_id": 3987 }, "geometry": { "type": "MultiPolygon", "coordinates": [ [ [ [ 120.679762, 31.453853 ], [ 120.679795, 31.453953 ], [ 120.679936, 31.453918 ], [ 120.679903, 31.453818 ] ] ] ] } },
{ "type": "Feature", "properties": { "id": 102, "start_point_id": 3988, "end_point_id": 4086 }, "geometry": { "type": "MultiPolygon", "coordinates": [ [ [ [ 120.679794, 31.45395 ], [ 120.680241, 31.455231 ], [ 120.680381, 31.455193 ], [ 120.679935, 31.453915 ] ] ] ] } },
{ "type": "Feature", "properties": { "id": 103, "start_point_id": 4087, "end_point_id": 4102 }, "geometry": { "type": "MultiPolygon", "coordinates": [ [ [ [ 120.68024, 31.455228 ], [ 120.68032, 31.455444 ], [ 120.68046, 31.455406 ], [ 120.68038, 31.45519 ] ] ] ] } },
{ "type": "Feature", "properties": { "id": 104, "start_point_id": 4103, "end_point_id": 4114 }, "geometry": { "type": "MultiPolygon", "coordinates": [ [ [ [ 120.680319, 31.455442 ], [ 120.680387, 31.455613 ], [ 120.680526, 31.455571 ], [ 120.680459, 31.455402 ] ] ] ] } },
{ "type": "Feature", "properties": { "id": 105, "start_point_id": 4115, "end_point_id": 4132 }, "geometry": { "type": "MultiPolygon", "coordinates": [ [ [ [ 120.680385, 31.45561 ], [ 120.68047, 31.455827 ], [ 120.68061, 31.455787 ], [ 120.680525, 31.455569 ] ] ] ] } },
{ "type": "Feature", "properties": { "id": 106, "start_point_id": 4133, "end_point_id": 4146 }, "geometry": { "type": "MultiPolygon", "coordinates": [ [ [ [ 120.680469, 31.455825 ], [ 120.680526, 31.455978 ], [ 120.680667, 31.455942 ], [ 120.680609, 31.455784 ] ] ] ] } },
{ "type": "Feature", "properties": { "id": 107, "start_point_id": 4147, "end_point_id": 4185 }, "geometry": { "type": "MultiPolygon", "coordinates": [ [ [ [ 120.680525, 31.455973 ], [ 120.680542, 31.456055 ], [ 120.680539, 31.456096 ], [ 120.680524, 31.456133 ], [ 120.680498, 31.456165 ], [ 120.680465, 31.456187 ], [ 120.680388, 31.456204 ], [ 120.680391388041627, 31.45633055073063 ], [ 120.680476, 31.456319 ], [ 120.68055, 31.45629 ], [ 120.68061, 31.456246 ], [ 120.680652, 31.456196 ], [ 120.680679, 31.456138 ], [ 120.680689, 31.456072 ], [ 120.680685, 31.456013 ], [ 120.680667, 31.455942 ], [ 120.680525, 31.455973 ] ] ] ] } },
{ "type": "Feature", "properties": { "id": 108, "start_point_id": 4186, "end_point_id": 4203 }, "geometry": { "type": "MultiPolygon", "coordinates": [ [ [ [ 120.68039008386414, 31.456203610787462 ], [ 120.680185, 31.456193 ], [ 120.680137073429435, 31.456191873189969 ], [ 120.680151419381914, 31.45632055203647 ], [ 120.680180546012707, 31.456319682584802 ], [ 120.680189, 31.456319 ], [ 120.680398, 31.456329 ], [ 120.68039008386414, 31.456203610787462 ] ] ] ] } },
{ "type": "Feature", "properties": { "id": 109, "start_point_id": 4204, "end_point_id": 4219 }, "geometry": { "type": "MultiPolygon", "coordinates": [ [ [ [ 120.680138, 31.456193 ], [ 120.679907, 31.456206 ], [ 120.679911, 31.456332 ], [ 120.680154, 31.456319 ] ] ] ] } },
{ "type": "Feature", "properties": { "id": 110, "start_point_id": 4220, "end_point_id": 4261 }, "geometry": { "type": "MultiPolygon", "coordinates": [ [ [ [ 120.679911, 31.456205 ], [ 120.679306, 31.456214 ], [ 120.679306, 31.45634 ], [ 120.679913, 31.456332 ] ] ] ] } },
{ "type": "Feature", "properties": { "id": 111, "start_point_id": 4262, "end_point_id": 4296 }, "geometry": { "type": "MultiPolygon", "coordinates": [ [ [ [ 120.679309, 31.456214 ], [ 120.678788, 31.456226 ], [ 120.678791, 31.456352 ], [ 120.67931, 31.45634 ] ] ] ] } },
{ "type": "Feature", "properties": { "id": 112, "start_point_id": 4297, "end_point_id": 4303 }, "geometry": { "type": "MultiPolygon", "coordinates": [ [ [ [ 120.67879, 31.456226 ], [ 120.678692, 31.456228 ], [ 120.678696, 31.456355 ], [ 120.678795, 31.456352 ] ] ] ] } },
{ "type": "Feature", "properties": { "id": 113, "start_point_id": 4304, "end_point_id": 4352 }, "geometry": { "type": "MultiPolygon", "coordinates": [ [ [ [ 120.678695, 31.456228 ], [ 120.677814, 31.456251 ], [ 120.677818, 31.456377 ], [ 120.678699, 31.456355 ] ] ] ] } },
{ "type": "Feature", "properties": { "id": 114, "start_point_id": 4353, "end_point_id": 4484 }, "geometry": { "type": "MultiPolygon", "coordinates": [ [ [ [ 120.677817, 31.456251 ], [ 120.67602, 31.456292 ], [ 120.675541, 31.45631 ], [ 120.675547, 31.456436 ], [ 120.676025, 31.456418 ], [ 120.677822, 31.456377 ] ] ] ] } },
{ "type": "Feature", "properties": { "id": 115, "start_point_id": 4485, "end_point_id": 4503 }, "geometry": { "type": "MultiPolygon", "coordinates": [ [ [ [ 120.675543, 31.45631 ], [ 120.675255, 31.456322 ], [ 120.675262, 31.456449 ], [ 120.675551, 31.456436 ] ] ] ] } },
{ "type": "Feature", "properties": { "id": 116, "start_point_id": 4504, "end_point_id": 4541 }, "geometry": { "type": "MultiPolygon", "coordinates": [ [ [ [ 120.675258, 31.456322 ], [ 120.674714, 31.456335 ], [ 120.674718, 31.456462 ], [ 120.675265, 31.456448 ] ] ] ] } },
{ "type": "Feature", "properties": { "id": 117, "start_point_id": 4542, "end_point_id": 4551 }, "geometry": { "type": "MultiPolygon", "coordinates": [ [ [ [ 120.674718, 31.456335 ], [ 120.674657, 31.456336 ], [ 120.67466, 31.456462 ], [ 120.67472, 31.456462 ] ] ] ] } },
{ "type": "Feature", "properties": { "id": 118, "start_point_id": 4552, "end_point_id": 4573 }, "geometry": { "type": "MultiPolygon", "coordinates": [ [ [ [ 120.67466, 31.456336 ], [ 120.674303, 31.456343 ], [ 120.674306, 31.456469 ], [ 120.674663, 31.456462 ] ] ] ] } },
{ "type": "Feature", "properties": { "id": 119, "start_point_id": 4574, "end_point_id": 4590 }, "geometry": { "type": "MultiPolygon", "coordinates": [ [ [ [ 120.674306, 31.456343 ], [ 120.674031, 31.456348 ], [ 120.674034, 31.456474 ], [ 120.674309, 31.456469 ] ] ] ] } },
{ "type": "Feature", "properties": { "id": 120, "start_point_id": 4591, "end_point_id": 4632 }, "geometry": { "type": "MultiPolygon", "coordinates": [ [ [ [ 120.674034, 31.456348 ], [ 120.673694, 31.456362 ], [ 120.673306, 31.456405 ], [ 120.673328, 31.45653 ], [ 120.673709, 31.456488 ], [ 120.674038, 31.456474 ] ] ] ] } },
{ "type": "Feature", "properties": { "id": 121, "start_point_id": 4633, "end_point_id": 4728 }, "geometry": { "type": "MultiPolygon", "coordinates": [ [ [ [ 120.673309, 31.456404 ], [ 120.673035, 31.456444 ], [ 120.672771, 31.456506 ], [ 120.672482, 31.456595 ], [ 120.671765, 31.45684 ], [ 120.671821, 31.456957 ], [ 120.672536, 31.456713 ], [ 120.672817, 31.456626 ], [ 120.673068, 31.456567 ], [ 120.673331, 31.456529 ] ] ] ] } },
{ "type": "Feature", "properties": { "id": 122, "start_point_id": 4729, "end_point_id": 4738 }, "geometry": { "type": "MultiPolygon", "coordinates": [ [ [ [ 120.671768, 31.456839 ], [ 120.671628, 31.456888 ], [ 120.671683, 31.457006 ], [ 120.671825, 31.456956 ] ] ] ] } },
{ "type": "Feature", "properties": { "id": 123, "start_point_id": 4739, "end_point_id": 4761 }, "geometry": { "type": "MultiPolygon", "coordinates": [ [ [ [ 120.67163, 31.456888 ], [ 120.671341, 31.456993 ], [ 120.671399, 31.457109 ], [ 120.671687, 31.457005 ] ] ] ] } },
{ "type": "Feature", "properties": { "id": 124, "start_point_id": 4762, "end_point_id": 4779 }, "geometry": { "type": "MultiPolygon", "coordinates": [ [ [ [ 120.671344, 31.456992 ], [ 120.671068, 31.457095 ], [ 120.671127, 31.45721 ], [ 120.671402, 31.457108 ] ] ] ] } },
{ "type": "Feature", "properties": { "id": 125, "start_point_id": 4780, "end_point_id": 4793 }, "geometry": { "type": "MultiPolygon", "coordinates": [ [ [ [ 120.671073, 31.457093 ], [ 120.670837, 31.457181 ], [ 120.670895, 31.457297 ], [ 120.671129, 31.45721 ] ] ] ] } },
{ "type": "Feature", "properties": { "id": 126, "start_point_id": 4794, "end_point_id": 4803 }, "geometry": { "type": "MultiPolygon", "coordinates": [ [ [ [ 120.67084, 31.45718 ], [ 120.67068, 31.457239 ], [ 120.670737, 31.457355 ], [ 120.670898, 31.457296 ] ] ] ] } },
{ "type": "Feature", "properties": { "id": 127, "start_point_id": 4804, "end_point_id": 4827 }, "geometry": { "type": "MultiPolygon", "coordinates": [ [ [ [ 120.670683, 31.457237 ], [ 120.670328, 31.457364 ], [ 120.670385, 31.457481 ], [ 120.670739, 31.457354 ] ] ] ] } },
{ "type": "Feature", "properties": { "id": 128, "start_point_id": 4828, "end_point_id": 4864 }, "geometry": { "type": "MultiPolygon", "coordinates": [ [ [ [ 120.670331, 31.457364 ], [ 120.669787, 31.457562 ], [ 120.669843, 31.457678 ], [ 120.670389, 31.45748 ] ] ] ] } },
{ "type": "Feature", "properties": { "id": 129, "start_point_id": 4865, "end_point_id": 4945 }, "geometry": { "type": "MultiPolygon", "coordinates": [ [ [ [ 120.66979, 31.45756 ], [ 120.668496, 31.457999 ], [ 120.668552, 31.458116 ], [ 120.669846, 31.457677 ] ] ] ] } },
{ "type": "Feature", "properties": { "id": 130, "start_point_id": 4946, "end_point_id": 4972 }, "geometry": { "type": "MultiPolygon", "coordinates": [ [ [ [ 120.668499, 31.457998 ], [ 120.668123, 31.458132 ], [ 120.668181, 31.458248 ], [ 120.668554, 31.458115 ] ] ] ] } },
{ "type": "Feature", "properties": { "id": 131, "start_point_id": 4973, "end_point_id": 4999 }, "geometry": { "type": "MultiPolygon", "coordinates": [ [ [ [ 120.668127, 31.458131 ], [ 120.667742, 31.458267 ], [ 120.667796, 31.458384 ], [ 120.668183, 31.458248 ] ] ] ] } },
{ "type": "Feature", "properties": { "id": 132, "start_point_id": 5000, "end_point_id": 5040 }, "geometry": { "type": "MultiPolygon", "coordinates": [ [ [ [ 120.667744, 31.458266 ], [ 120.667134, 31.458479 ], [ 120.66719, 31.458596 ], [ 120.667799, 31.458383 ] ] ] ] } },
{ "type": "Feature", "properties": { "id": 133, "start_point_id": 5041, "end_point_id": 5052 }, "geometry": { "type": "MultiPolygon", "coordinates": [ [ [ [ 120.667137, 31.458478 ], [ 120.666947, 31.458543 ], [ 120.667001, 31.45866 ], [ 120.667193, 31.458595 ] ] ] ] } },
{ "type": "Feature", "properties": { "id": 134, "start_point_id": 5053, "end_point_id": 5083 }, "geometry": { "type": "MultiPolygon", "coordinates": [ [ [ [ 120.66695, 31.458542 ], [ 120.66645, 31.458704 ], [ 120.666504, 31.458822 ], [ 120.667003, 31.458659 ] ] ] ] } },
{ "type": "Feature", "properties": { "id": 135, "start_point_id": 5084, "end_point_id": 5102 }, "geometry": { "type": "MultiPolygon", "coordinates": [ [ [ [ 120.666453, 31.458703 ], [ 120.666163, 31.458804 ], [ 120.66622, 31.458921 ], [ 120.666506, 31.458821 ] ] ] ] } },
{ "type": "Feature", "properties": { "id": 136, "start_point_id": 5103, "end_point_id": 5139 }, "geometry": { "type": "MultiPolygon", "coordinates": [ [ [ [ 120.666166, 31.458804 ], [ 120.666030691934239, 31.458820011138915 ], [ 120.665958480065427, 31.458792111098699 ], [ 120.665887909375471, 31.458742875733606 ], [ 120.665822262222022, 31.458664099149463 ], [ 120.665773026856925, 31.458598451996007 ], [ 120.66574952203689, 31.458559027291528 ], [ 120.665742793407688, 31.458535477089324 ], [ 120.665719, 31.458453 ], [ 120.665574, 31.458477 ], [ 120.665581306306848, 31.458564634482531 ], [ 120.665592497184932, 31.458652610897609 ], [ 120.66560373507086, 31.458726121583371 ], [ 120.665641863969668, 31.458805743695592 ], [ 120.66570466450888, 31.458892094437015 ], [ 120.665784286621104, 31.458970595111033 ], [ 120.665896430441137, 31.458998631066041 ], [ 120.6659814213034, 31.458993700134801 ], [ 120.666044460283572, 31.458987416684039 ], [ 120.666109, 31.458961 ], [ 120.666223, 31.45892 ], [ 120.666166, 31.458804 ] ] ] ] } },
{ "type": "Feature", "properties": { "id": 137, "start_point_id": 5140, "end_point_id": 5187 }, "geometry": { "type": "MultiPolygon", "coordinates": [ [ [ [ 120.665719, 31.458456 ], [ 120.66556, 31.457755 ], [ 120.665416, 31.457779 ], [ 120.665575, 31.45848 ] ] ] ] } },
{ "type": "Feature", "properties": { "id": 138, "start_point_id": 5188, "end_point_id": 5219 }, "geometry": { "type": "MultiPolygon", "coordinates": [ [ [ [ 120.665561, 31.457757 ], [ 120.665461, 31.457341 ], [ 120.665316, 31.457367 ], [ 120.665416, 31.457781 ] ] ] ] } },
{ "type": "Feature", "properties": { "id": 139, "start_point_id": 5220, "end_point_id": 5238 }, "geometry": { "type": "MultiPolygon", "coordinates": [ [ [ [ 120.665461, 31.457344 ], [ 120.665399, 31.457085 ], [ 120.665255, 31.457111 ], [ 120.665317, 31.457369 ] ] ] ] } },
{ "type": "Feature", "properties": { "id": 140, "start_point_id": 5239, "end_point_id": 5264 }, "geometry": { "type": "MultiPolygon", "coordinates": [ [ [ [ 120.6654, 31.457088 ], [ 120.665315, 31.45675 ], [ 120.665171, 31.456778 ], [ 120.665256, 31.457113 ] ] ] ] } },
{ "type": "Feature", "properties": { "id": 141, "start_point_id": 5265, "end_point_id": 5273 }, "geometry": { "type": "MultiPolygon", "coordinates": [ [ [ [ 120.665316, 31.456753 ], [ 120.665283, 31.456628 ], [ 120.665139, 31.456655 ], [ 120.665172, 31.45678 ] ] ] ] } },
{ "type": "Feature", "properties": { "id": 142, "start_point_id": 5274, "end_point_id": 5287 }, "geometry": { "type": "MultiPolygon", "coordinates": [ [ [ [ 120.665283, 31.45663 ], [ 120.665241, 31.456469 ], [ 120.665097, 31.456497 ], [ 120.66514, 31.456658 ] ] ] ] } },
{ "type": "Feature", "properties": { "id": 143, "start_point_id": 5288, "end_point_id": 5313 }, "geometry": { "type": "MultiPolygon", "coordinates": [ [ [ [ 120.665241, 31.456471 ], [ 120.665136, 31.456091 ], [ 120.664992, 31.45612 ], [ 120.665098, 31.4565 ] ] ] ] } },
{ "type": "Feature", "properties": { "id": 144, "start_point_id": 5314, "end_point_id": 5323 }, "geometry": { "type": "MultiPolygon", "coordinates": [ [ [ [ 120.665136, 31.456093 ], [ 120.665099, 31.455963 ], [ 120.664956, 31.455993 ], [ 120.664993, 31.456123 ] ] ] ] } },
{ "type": "Feature", "properties": { "id": 145, "start_point_id": 5324, "end_point_id": 5353 }, "geometry": { "type": "MultiPolygon", "coordinates": [ [ [ [ 120.6651, 31.455965 ], [ 120.664984, 31.455572 ], [ 120.664841, 31.455603 ], [ 120.664957, 31.455996 ] ] ] ] } },
{ "type": "Feature", "properties": { "id": 146, "start_point_id": 5354, "end_point_id": 5362 }, "geometry": { "type": "MultiPolygon", "coordinates": [ [ [ [ 120.664984, 31.455574 ], [ 120.664943, 31.455439 ], [ 120.664801, 31.45547 ], [ 120.664842, 31.455606 ] ] ] ] } },
{ "type": "Feature", "properties": { "id": 147, "start_point_id": 5363, "end_point_id": 5403 }, "geometry": { "type": "MultiPolygon", "coordinates": [ [ [ [ 120.664944, 31.455441 ], [ 120.664769, 31.454875 ], [ 120.664627, 31.45491 ], [ 120.664802, 31.455473 ] ] ] ] } },
{ "type": "Feature", "properties": { "id": 148, "start_point_id": 5404, "end_point_id": 5416 }, "geometry": { "type": "MultiPolygon", "coordinates": [ [ [ [ 120.66477, 31.454878 ], [ 120.664753, 31.454819 ], [ 120.664608, 31.454845 ], [ 120.664628, 31.454912 ] ] ] ] } },
{ "type": "Feature", "properties": { "id": 149, "start_point_id": 5417, "end_point_id": 5446 }, "geometry": { "type": "MultiPolygon", "coordinates": [ [ [ [ 120.664751, 31.454818 ], [ 120.664633, 31.454436 ], [ 120.66449, 31.454468 ], [ 120.664609, 31.454852 ] ] ] ] } },
{ "type": "Feature", "properties": { "id": 150, "start_point_id": 5447, "end_point_id": 5486 }, "geometry": { "type": "MultiPolygon", "coordinates": [ [ [ [ 120.664634, 31.454439 ], [ 120.664468, 31.453887 ], [ 120.664325, 31.453919 ], [ 120.664491, 31.45447 ] ] ] ] } },
{ "type": "Feature", "properties": { "id": 151, "start_point_id": 5487, "end_point_id": 5558 }, "geometry": { "type": "MultiPolygon", "coordinates": [ [ [ [ 120.664468, 31.45389 ], [ 120.664135, 31.452816 ], [ 120.663993, 31.452848 ], [ 120.664326, 31.453921 ] ] ] ] } },
{ "type": "Feature", "properties": { "id": 152, "start_point_id": 5559, "end_point_id": 5568 }, "geometry": { "type": "MultiPolygon", "coordinates": [ [ [ [ 120.664136, 31.452818 ], [ 120.664095, 31.452691 ], [ 120.663953, 31.452724 ], [ 120.663993, 31.452851 ] ] ] ] } },
{ "type": "Feature", "properties": { "id": 153, "start_point_id": 5569, "end_point_id": 5589 }, "geometry": { "type": "MultiPolygon", "coordinates": [ [ [ [ 120.664096, 31.452693 ], [ 120.664017, 31.452436 ], [ 120.663874, 31.452465 ], [ 120.663954, 31.452727 ] ] ] ] } },
{ "type": "Feature", "properties": { "id": 154, "start_point_id": 5590, "end_point_id": 5600 }, "geometry": { "type": "MultiPolygon", "coordinates": [ [ [ [ 120.664018, 31.452438 ], [ 120.664001, 31.45238 ], [ 120.663858, 31.452411 ], [ 120.663874, 31.452468 ] ] ] ] } },
{ "type": "Feature", "properties": { "id": 155, "start_point_id": 5601, "end_point_id": 5624 }, "geometry": { "type": "MultiPolygon", "coordinates": [ [ [ [ 120.664001, 31.452383 ], [ 120.663908, 31.452073 ], [ 120.663766, 31.452104 ], [ 120.663859, 31.452414 ] ] ] ] } },
{ "type": "Feature", "properties": { "id": 156, "start_point_id": 5625, "end_point_id": 5646 }, "geometry": { "type": "MultiPolygon", "coordinates": [ [ [ [ 120.663909, 31.452076 ], [ 120.663812, 31.451754 ], [ 120.663669, 31.451786 ], [ 120.663766, 31.452106 ] ] ] ] } },
{ "type": "Feature", "properties": { "id": 157, "start_point_id": 5647, "end_point_id": 5695 }, "geometry": { "type": "MultiPolygon", "coordinates": [ [ [ [ 120.663813, 31.451757 ], [ 120.663607, 31.451082 ], [ 120.663464, 31.451114 ], [ 120.66367, 31.451789 ] ] ] ] } },
{ "type": "Feature", "properties": { "id": 158, "start_point_id": 5696, "end_point_id": 5705 }, "geometry": { "type": "MultiPolygon", "coordinates": [ [ [ [ 120.663607, 31.451085 ], [ 120.663564, 31.450943 ], [ 120.663422, 31.450974 ], [ 120.663465, 31.451116 ] ] ] ] } },
{ "type": "Feature", "properties": { "id": 159, "start_point_id": 5706, "end_point_id": 5719 }, "geometry": { "type": "MultiPolygon", "coordinates": [ [ [ [ 120.663565, 31.450945 ], [ 120.663497, 31.450722 ], [ 120.663355, 31.450753 ], [ 120.663423, 31.450977 ] ] ] ] } },
{ "type": "Feature", "properties": { "id": 160, "start_point_id": 5720, "end_point_id": 5730 }, "geometry": { "type": "MultiPolygon", "coordinates": [ [ [ [ 120.663498, 31.450724 ], [ 120.663443, 31.450542 ], [ 120.6633, 31.450574 ], [ 120.663355, 31.450756 ] ] ] ] } },
{ "type": "Feature", "properties": { "id": 161, "start_point_id": 5731, "end_point_id": 5756 }, "geometry": { "type": "MultiPolygon", "coordinates": [ [ [ [ 120.663444, 31.450544 ], [ 120.663308, 31.450104 ], [ 120.663165, 31.450136 ], [ 120.663301, 31.450576 ] ] ] ] } },
{ "type": "Feature", "properties": { "id": 162, "start_point_id": 5757, "end_point_id": 5765 }, "geometry": { "type": "MultiPolygon", "coordinates": [ [ [ [ 120.663308, 31.450107 ], [ 120.663261, 31.449951 ], [ 120.663118, 31.449983 ], [ 120.663166, 31.450139 ] ] ] ] } },
{ "type": "Feature", "properties": { "id": 163, "start_point_id": 5766, "end_point_id": 5789 }, "geometry": { "type": "MultiPolygon", "coordinates": [ [ [ [ 120.663261, 31.449954 ], [ 120.663148, 31.449584 ], [ 120.663005, 31.449617 ], [ 120.663119, 31.449986 ] ] ] ] } },
{ "type": "Feature", "properties": { "id": 164, "start_point_id": 5790, "end_point_id": 5845 }, "geometry": { "type": "MultiPolygon", "coordinates": [ [ [ [ 120.663148, 31.449587 ], [ 120.662914, 31.448823 ], [ 120.662772, 31.448857 ], [ 120.663006, 31.44962 ] ] ] ] } },
{ "type": "Feature", "properties": { "id": 165, "start_point_id": 5846, "end_point_id": 5879 }, "geometry": { "type": "MultiPolygon", "coordinates": [ [ [ [ 120.662915, 31.448828 ], [ 120.6628, 31.448449 ], [ 120.662658, 31.448481 ], [ 120.662772, 31.448858 ] ] ] ] } },
{ "type": "Feature", "properties": { "id": 166, "start_point_id": 5880, "end_point_id": 5903 }, "geometry": { "type": "MultiPolygon", "coordinates": [ [ [ [ 120.662801, 31.448451 ], [ 120.662698, 31.448121 ], [ 120.662554, 31.448151 ], [ 120.662659, 31.448484 ] ] ] ] } },
{ "type": "Feature", "properties": { "id": 167, "start_point_id": 5904, "end_point_id": 5916 }, "geometry": { "type": "MultiPolygon", "coordinates": [ [ [ [ 120.662697, 31.448122 ], [ 120.66264, 31.447936 ], [ 120.662497, 31.447969 ], [ 120.662555, 31.448155 ] ] ] ] } },
{ "type": "Feature", "properties": { "id": 168, "start_point_id": 5917, "end_point_id": 5947 }, "geometry": { "type": "MultiPolygon", "coordinates": [ [ [ [ 120.66264, 31.447939 ], [ 120.662478, 31.447409 ], [ 120.662335, 31.447442 ], [ 120.662498, 31.447971 ] ] ] ] } },
{ "type": "Feature", "properties": { "id": 169, "start_point_id": 5948, "end_point_id": 5961 }, "geometry": { "type": "MultiPolygon", "coordinates": [ [ [ [ 120.662478, 31.447412 ], [ 120.662396, 31.447145 ], [ 120.662254, 31.447177 ], [ 120.662336, 31.447444 ] ] ] ] } },
{ "type": "Feature", "properties": { "id": 170, "start_point_id": 5962, "end_point_id": 5991 }, "geometry": { "type": "MultiPolygon", "coordinates": [ [ [ [ 120.662397, 31.447147 ], [ 120.662249, 31.446658 ], [ 120.662107, 31.44669 ], [ 120.662254, 31.447179 ] ] ] ] } },
{ "type": "Feature", "properties": { "id": 171, "start_point_id": 5992, "end_point_id": 6003 }, "geometry": { "type": "MultiPolygon", "coordinates": [ [ [ [ 120.66225, 31.446661 ], [ 120.662181, 31.446438 ], [ 120.662039, 31.446471 ], [ 120.662107, 31.446693 ] ] ] ] } },
{ "type": "Feature", "properties": { "id": 172, "start_point_id": 6004, "end_point_id": 6034 }, "geometry": { "type": "MultiPolygon", "coordinates": [ [ [ [ 120.662182, 31.446441 ], [ 120.661991, 31.445818 ], [ 120.661848, 31.445849 ], [ 120.66204, 31.446473 ] ] ] ] } },
{ "type": "Feature", "properties": { "id": 173, "start_point_id": 6035, "end_point_id": 6057 }, "geometry": { "type": "MultiPolygon", "coordinates": [ [ [ [ 120.661991, 31.44582 ], [ 120.661864, 31.445404 ], [ 120.661722, 31.445436 ], [ 120.661849, 31.445852 ] ] ] ] } },
{ "type": "Feature", "properties": { "id": 174, "start_point_id": 6058, "end_point_id": 6076 }, "geometry": { "type": "MultiPolygon", "coordinates": [ [ [ [ 120.661865, 31.445407 ], [ 120.66176, 31.445056 ], [ 120.661617, 31.445088 ], [ 120.661723, 31.445439 ] ] ] ] } },
{ "type": "Feature", "properties": { "id": 175, "start_point_id": 6077, "end_point_id": 6097 }, "geometry": { "type": "MultiPolygon", "coordinates": [ [ [ [ 120.661761, 31.445059 ], [ 120.661641, 31.444664 ], [ 120.661499, 31.444696 ], [ 120.661618, 31.44509 ] ] ] ] } },
{ "type": "Feature", "properties": { "id": 176, "start_point_id": 6098, "end_point_id": 6136 }, "geometry": { "type": "MultiPolygon", "coordinates": [ [ [ [ 120.661642, 31.444667 ], [ 120.661427, 31.443965 ], [ 120.661285, 31.443998 ], [ 120.6615, 31.444698 ] ] ] ] } },
{ "type": "Feature", "properties": { "id": 177, "start_point_id": 6137, "end_point_id": 6150 }, "geometry": { "type": "MultiPolygon", "coordinates": [ [ [ [ 120.661428, 31.443968 ], [ 120.661345, 31.443702 ], [ 120.661202, 31.443734 ], [ 120.661286, 31.444001 ] ] ] ] } },
{ "type": "Feature", "properties": { "id": 178, "start_point_id": 6151, "end_point_id": 6207 }, "geometry": { "type": "MultiPolygon", "coordinates": [ [ [ [ 120.661345, 31.443704 ], [ 120.661027, 31.442661 ], [ 120.660884, 31.442694 ], [ 120.661203, 31.443737 ] ] ] ] } },
{ "type": "Feature", "properties": { "id": 179, "start_point_id": 6208, "end_point_id": 6224 }, "geometry": { "type": "MultiPolygon", "coordinates": [ [ [ [ 120.661028, 31.442664 ], [ 120.660915, 31.442298 ], [ 120.660772, 31.442331 ], [ 120.660885, 31.442696 ] ] ] ] } },
{ "type": "Feature", "properties": { "id": 180, "start_point_id": 6225, "end_point_id": 6250 }, "geometry": { "type": "MultiPolygon", "coordinates": [ [ [ [ 120.660915, 31.442301 ], [ 120.660769, 31.441848 ], [ 120.660628, 31.441884 ], [ 120.660773, 31.442333 ] ] ] ] } },
{ "type": "Feature", "properties": { "id": 181, "start_point_id": 6251, "end_point_id": 6283 }, "geometry": { "type": "MultiPolygon", "coordinates": [ [ [ [ 120.66077, 31.44185 ], [ 120.660572, 31.441296 ], [ 120.66043, 31.441331 ], [ 120.660629, 31.441887 ] ] ] ] } },
{ "type": "Feature", "properties": { "id": 182, "start_point_id": 6284, "end_point_id": 6333 }, "geometry": { "type": "MultiPolygon", "coordinates": [ [ [ [ 120.660573, 31.441299 ], [ 120.660357, 31.440595 ], [ 120.660214, 31.440626 ], [ 120.660431, 31.441333 ] ] ] ] } },
{ "type": "Feature", "properties": { "id": 183, "start_point_id": 6334, "end_point_id": 6452 }, "geometry": { "type": "MultiPolygon", "coordinates": [ [ [ [ 120.660357, 31.440597 ], [ 120.659859, 31.43897 ], [ 120.659717, 31.439002 ], [ 120.660215, 31.440629 ] ] ] ] } },
{ "type": "Feature", "properties": { "id": 184, "start_point_id": 6453, "end_point_id": 6467 }, "geometry": { "type": "MultiPolygon", "coordinates": [ [ [ [ 120.65986, 31.438973 ], [ 120.659805, 31.438789 ], [ 120.659662, 31.438819 ], [ 120.659718, 31.439004 ] ] ] ] } },
{ "type": "Feature", "properties": { "id": 185, "start_point_id": 6468, "end_point_id": 6477 }, "geometry": { "type": "MultiPolygon", "coordinates": [ [ [ [ 120.659806, 31.438791 ], [ 120.65977, 31.438668 ], [ 120.659627, 31.438698 ], [ 120.659663, 31.438822 ] ] ] ] } },
{ "type": "Feature", "properties": { "id": 186, "start_point_id": 6478, "end_point_id": 6502 }, "geometry": { "type": "MultiPolygon", "coordinates": [ [ [ [ 120.659771, 31.43867 ], [ 120.659678, 31.438377 ], [ 120.659536, 31.438413 ], [ 120.659628, 31.438701 ] ] ] ] } },
{ "type": "Feature", "properties": { "id": 187, "start_point_id": 6503, "end_point_id": 6513 }, "geometry": { "type": "MultiPolygon", "coordinates": [ [ [ [ 120.659678, 31.438379 ], [ 120.659627, 31.438231 ], [ 120.659486, 31.438266 ], [ 120.659537, 31.438416 ] ] ] ] } },
{ "type": "Feature", "properties": { "id": 188, "start_point_id": 6514, "end_point_id": 6521 }, "geometry": { "type": "MultiPolygon", "coordinates": [ [ [ [ 120.659628, 31.438234 ], [ 120.659589, 31.43811 ], [ 120.659447, 31.438143 ], [ 120.659487, 31.438268 ] ] ] ] } },
{ "type": "Feature", "properties": { "id": 189, "start_point_id": 6522, "end_point_id": 6538 }, "geometry": { "type": "MultiPolygon", "coordinates": [ [ [ [ 120.65959, 31.438113 ], [ 120.659509, 31.437847 ], [ 120.659367, 31.437878 ], [ 120.659447, 31.438145 ] ] ] ] } },
{ "type": "Feature", "properties": { "id": 190, "start_point_id": 6539, "end_point_id": 6572 }, "geometry": { "type": "MultiPolygon", "coordinates": [ [ [ [ 120.65951, 31.43785 ], [ 120.659359, 31.437333 ], [ 120.659216, 31.437363 ], [ 120.659367, 31.437881 ] ] ] ] } },
{ "type": "Feature", "properties": { "id": 191, "start_point_id": 6573, "end_point_id": 6605 }, "geometry": { "type": "MultiPolygon", "coordinates": [ [ [ [ 120.659359, 31.437336 ], [ 120.659225, 31.43686 ], [ 120.659082, 31.43689 ], [ 120.659216, 31.437366 ] ] ] ] } },
{ "type": "Feature", "properties": { "id": 192, "start_point_id": 6606, "end_point_id": 6624 }, "geometry": { "type": "MultiPolygon", "coordinates": [ [ [ [ 120.659225, 31.436863 ], [ 120.659148, 31.436595 ], [ 120.659005, 31.436626 ], [ 120.659082, 31.436893 ] ] ] ] } },
{ "type": "Feature", "properties": { "id": 193, "start_point_id": 6625, "end_point_id": 6673 }, "geometry": { "type": "MultiPolygon", "coordinates": [ [ [ [ 120.659148, 31.436597 ], [ 120.658949, 31.435929 ], [ 120.658806, 31.435961 ], [ 120.659006, 31.436628 ] ] ] ] } },
{ "type": "Feature", "properties": { "id": 194, "start_point_id": 6674, "end_point_id": 6694 }, "geometry": { "type": "MultiPolygon", "coordinates": [ [ [ [ 120.65895, 31.435932 ], [ 120.658861, 31.435626 ], [ 120.658718, 31.435656 ], [ 120.658807, 31.435964 ] ] ] ] } },
{ "type": "Feature", "properties": { "id": 195, "start_point_id": 6695, "end_point_id": 6744 }, "geometry": { "type": "MultiPolygon", "coordinates": [ [ [ [ 120.658861, 31.435629 ], [ 120.658686, 31.435046 ], [ 120.658544, 31.43508 ], [ 120.658719, 31.435659 ] ] ] ] } },
{ "type": "Feature", "properties": { "id": 196, "start_point_id": 6745, "end_point_id": 6775 }, "geometry": { "type": "MultiPolygon", "coordinates": [ [ [ [ 120.658686, 31.435048 ], [ 120.658542, 31.43462 ], [ 120.6584, 31.434654 ], [ 120.658545, 31.435083 ] ] ] ] } },
{ "type": "Feature", "properties": { "id": 197, "start_point_id": 6776, "end_point_id": 6827 }, "geometry": { "type": "MultiPolygon", "coordinates": [ [ [ [ 120.658543, 31.434622 ], [ 120.658302, 31.433916 ], [ 120.658161, 31.433953 ], [ 120.658401, 31.434656 ] ] ] ] } },
{ "type": "Feature", "properties": { "id": 198, "start_point_id": 6828, "end_point_id": 6874 }, "geometry": { "type": "MultiPolygon", "coordinates": [ [ [ [ 120.658302, 31.433918 ], [ 120.65804, 31.433219 ], [ 120.6579, 31.433259 ], [ 120.658162, 31.433956 ] ] ] ] } },
{ "type": "Feature", "properties": { "id": 199, "start_point_id": 6875, "end_point_id": 6894 }, "geometry": { "type": "MultiPolygon", "coordinates": [ [ [ [ 120.658041, 31.433222 ], [ 120.657927, 31.432932 ], [ 120.657788, 31.432973 ], [ 120.657901, 31.433262 ] ] ] ] } },
{ "type": "Feature", "properties": { "id": 200, "start_point_id": 6895, "end_point_id": 6939 }, "geometry": { "type": "MultiPolygon", "coordinates": [ [ [ [ 120.657928, 31.432935 ], [ 120.657628, 31.432225 ], [ 120.65749, 31.43227 ], [ 120.657789, 31.432976 ] ] ] ] } },
{ "type": "Feature", "properties": { "id": 201, "start_point_id": 6940, "end_point_id": 6969 }, "geometry": { "type": "MultiPolygon", "coordinates": [ [ [ [ 120.657629, 31.432227 ], [ 120.657404, 31.431732 ], [ 120.657267, 31.431778 ], [ 120.657491, 31.432272 ] ] ] ] } },
{ "type": "Feature", "properties": { "id": 202, "start_point_id": 6970, "end_point_id": 7016 }, "geometry": { "type": "MultiPolygon", "coordinates": [ [ [ [ 120.657405, 31.431734 ], [ 120.657064, 31.431013 ], [ 120.656928, 31.431061 ], [ 120.657268, 31.431781 ] ] ] ] } },
{ "type": "Feature", "properties": { "id": 203, "start_point_id": 7017, "end_point_id": 7026 }, "geometry": { "type": "MultiPolygon", "coordinates": [ [ [ [ 120.657065, 31.431015 ], [ 120.656989, 31.430859 ], [ 120.656853, 31.430907 ], [ 120.656929, 31.431064 ] ] ] ] } },
{ "type": "Feature", "properties": { "id": 204, "start_point_id": 7027, "end_point_id": 7037 }, "geometry": { "type": "MultiPolygon", "coordinates": [ [ [ [ 120.65699, 31.430861 ], [ 120.656904, 31.430685 ], [ 120.656768, 31.430734 ], [ 120.656854, 31.43091 ] ] ] ] } },
{ "type": "Feature", "properties": { "id": 205, "start_point_id": 7038, "end_point_id": 7053 }, "geometry": { "type": "MultiPolygon", "coordinates": [ [ [ [ 120.656905, 31.430687 ], [ 120.656784, 31.430443 ], [ 120.656649, 31.430493 ], [ 120.656769, 31.430736 ] ] ] ] } },
{ "type": "Feature", "properties": { "id": 206, "start_point_id": 7054, "end_point_id": 7089 }, "geometry": { "type": "MultiPolygon", "coordinates": [ [ [ [ 120.656785, 31.430446 ], [ 120.656462, 31.42981 ], [ 120.656328, 31.429861 ], [ 120.65665, 31.430495 ] ] ] ] } },
{ "type": "Feature", "properties": { "id": 207, "start_point_id": 7090, "end_point_id": 7105 }, "geometry": { "type": "MultiPolygon", "coordinates": [ [ [ [ 120.656463, 31.429813 ], [ 120.656327, 31.429554 ], [ 120.656193, 31.429605 ], [ 120.656328, 31.429864 ] ] ] ] } },
{ "type": "Feature", "properties": { "id": 208, "start_point_id": 7106, "end_point_id": 7189 }, "geometry": { "type": "MultiPolygon", "coordinates": [ [ [ [ 120.656328, 31.429556 ], [ 120.655654, 31.42821 ], [ 120.655519, 31.428261 ], [ 120.656194, 31.429608 ] ] ] ] } },
{ "type": "Feature", "properties": { "id": 209, "start_point_id": 7190, "end_point_id": 7205 }, "geometry": { "type": "MultiPolygon", "coordinates": [ [ [ [ 120.655655, 31.428213 ], [ 120.655532, 31.427972 ], [ 120.655398, 31.428023 ], [ 120.65552, 31.428263 ] ] ] ] } },
{ "type": "Feature", "properties": { "id": 210, "start_point_id": 7206, "end_point_id": 7222 }, "geometry": { "type": "MultiPolygon", "coordinates": [ [ [ [ 120.655534, 31.427975 ], [ 120.655407, 31.42773 ], [ 120.655272, 31.427781 ], [ 120.655399, 31.428026 ] ] ] ] } },
{ "type": "Feature", "properties": { "id": 211, "start_point_id": 7223, "end_point_id": 7241 }, "geometry": { "type": "MultiPolygon", "coordinates": [ [ [ [ 120.655408, 31.427732 ], [ 120.655261, 31.427449 ], [ 120.655126, 31.4275 ], [ 120.655273, 31.427783 ] ] ] ] } },
{ "type": "Feature", "properties": { "id": 212, "start_point_id": 7242, "end_point_id": 7304 }, "geometry": { "type": "MultiPolygon", "coordinates": [ [ [ [ 120.655262, 31.427451 ], [ 120.654769, 31.426476 ], [ 120.654635, 31.426527 ], [ 120.655127, 31.427502 ] ] ] ] } },
{ "type": "Feature", "properties": { "id": 213, "start_point_id": 7305, "end_point_id": 7316 }, "geometry": { "type": "MultiPolygon", "coordinates": [ [ [ [ 120.654771, 31.426479 ], [ 120.654675, 31.426294 ], [ 120.654541, 31.426344 ], [ 120.654636, 31.426529 ] ] ] ] } },
{ "type": "Feature", "properties": { "id": 214, "start_point_id": 7317, "end_point_id": 7431 }, "geometry": { "type": "MultiPolygon", "coordinates": [ [ [ [ 120.654677, 31.426296 ], [ 120.654063, 31.425095 ], [ 120.65383, 31.424656 ], [ 120.653697, 31.424709 ], [ 120.653929, 31.425146 ], [ 120.654542, 31.426347 ] ] ] ] } },
{ "type": "Feature", "properties": { "id": 215, "start_point_id": 7432, "end_point_id": 7456 }, "geometry": { "type": "MultiPolygon", "coordinates": [ [ [ [ 120.653832, 31.424659 ], [ 120.653668, 31.42435 ], [ 120.653533, 31.424402 ], [ 120.653698, 31.424711 ] ] ] ] } },
{ "type": "Feature", "properties": { "id": 216, "start_point_id": 7457, "end_point_id": 7464 }, "geometry": { "type": "MultiPolygon", "coordinates": [ [ [ [ 120.653669, 31.424352 ], [ 120.653612, 31.424242 ], [ 120.653477, 31.424293 ], [ 120.653535, 31.424404 ] ] ] ] } },
{ "type": "Feature", "properties": { "id": 217, "start_point_id": 7465, "end_point_id": 7485 }, "geometry": { "type": "MultiPolygon", "coordinates": [ [ [ [ 120.653613, 31.424245 ], [ 120.653466, 31.423964 ], [ 120.653332, 31.424015 ], [ 120.653478, 31.424296 ] ] ] ] } },
{ "type": "Feature", "properties": { "id": 218, "start_point_id": 7486, "end_point_id": 7514 }, "geometry": { "type": "MultiPolygon", "coordinates": [ [ [ [ 120.653467, 31.423966 ], [ 120.653272, 31.423601 ], [ 120.653138, 31.423654 ], [ 120.653333, 31.424018 ] ] ] ] } },
{ "type": "Feature", "properties": { "id": 219, "start_point_id": 7515, "end_point_id": 7527 }, "geometry": { "type": "MultiPolygon", "coordinates": [ [ [ [ 120.653273, 31.423604 ], [ 120.65318, 31.423429 ], [ 120.653046, 31.423482 ], [ 120.65314, 31.423657 ] ] ] ] } },
{ "type": "Feature", "properties": { "id": 220, "start_point_id": 7528, "end_point_id": 7557 }, "geometry": { "type": "MultiPolygon", "coordinates": [ [ [ [ 120.653181, 31.423432 ], [ 120.652935, 31.422969 ], [ 120.652801, 31.423021 ], [ 120.653047, 31.423484 ] ] ] ] } },
{ "type": "Feature", "properties": { "id": 221, "start_point_id": 7558, "end_point_id": 7580 }, "geometry": { "type": "MultiPolygon", "coordinates": [ [ [ [ 120.652936, 31.422971 ], [ 120.652763, 31.42264 ], [ 120.652629, 31.422692 ], [ 120.652802, 31.423023 ] ] ] ] } },
{ "type": "Feature", "properties": { "id": 222, "start_point_id": 7581, "end_point_id": 7605 }, "geometry": { "type": "MultiPolygon", "coordinates": [ [ [ [ 120.652764, 31.422643 ], [ 120.652571, 31.422281 ], [ 120.652437, 31.422333 ], [ 120.65263, 31.422695 ] ] ] ] } },
{ "type": "Feature", "properties": { "id": 223, "start_point_id": 7606, "end_point_id": 7633 }, "geometry": { "type": "MultiPolygon", "coordinates": [ [ [ [ 120.652572, 31.422283 ], [ 120.652347, 31.421863 ], [ 120.652214, 31.421916 ], [ 120.652438, 31.422335 ] ] ] ] } },
{ "type": "Feature", "properties": { "id": 224, "start_point_id": 7634, "end_point_id": 7672 }, "geometry": { "type": "MultiPolygon", "coordinates": [ [ [ [ 120.652349, 31.421866 ], [ 120.652062, 31.421317 ], [ 120.651927, 31.421368 ], [ 120.652215, 31.421919 ] ] ] ] } },
{ "type": "Feature", "properties": { "id": 225, "start_point_id": 7673, "end_point_id": 7725 }, "geometry": { "type": "MultiPolygon", "coordinates": [ [ [ [ 120.652064, 31.42132 ], [ 120.651692, 31.420579 ], [ 120.651557, 31.420629 ], [ 120.651929, 31.42137 ] ] ] ] } },
{ "type": "Feature", "properties": { "id": 226, "start_point_id": 7726, "end_point_id": 7750 }, "geometry": { "type": "MultiPolygon", "coordinates": [ [ [ [ 120.651693, 31.420581 ], [ 120.651519, 31.420239 ], [ 120.651384, 31.420289 ], [ 120.651558, 31.420632 ] ] ] ] } },
{ "type": "Feature", "properties": { "id": 227, "start_point_id": 7751, "end_point_id": 7777 }, "geometry": { "type": "MultiPolygon", "coordinates": [ [ [ [ 120.651521, 31.420242 ], [ 120.65133, 31.419857 ], [ 120.651195, 31.419907 ], [ 120.651385, 31.420292 ] ] ] ] } },
{ "type": "Feature", "properties": { "id": 228, "start_point_id": 7778, "end_point_id": 7788 }, "geometry": { "type": "MultiPolygon", "coordinates": [ [ [ [ 120.651331, 31.419859 ], [ 120.651266, 31.41973 ], [ 120.651131, 31.419782 ], [ 120.651197, 31.41991 ] ] ] ] } },
{ "type": "Feature", "properties": { "id": 229, "start_point_id": 7789, "end_point_id": 7802 }, "geometry": { "type": "MultiPolygon", "coordinates": [ [ [ [ 120.651267, 31.419733 ], [ 120.651181, 31.419565 ], [ 120.651046, 31.419616 ], [ 120.651132, 31.419784 ] ] ] ] } },
{ "type": "Feature", "properties": { "id": 230, "start_point_id": 7803, "end_point_id": 7815 }, "geometry": { "type": "MultiPolygon", "coordinates": [ [ [ [ 120.651182, 31.419568 ], [ 120.651106, 31.419416 ], [ 120.65097, 31.419466 ], [ 120.651047, 31.419618 ] ] ] ] } },
{ "type": "Feature", "properties": { "id": 231, "start_point_id": 7816, "end_point_id": 7834 }, "geometry": { "type": "MultiPolygon", "coordinates": [ [ [ [ 120.651107, 31.419419 ], [ 120.650997, 31.419197 ], [ 120.650862, 31.419247 ], [ 120.650972, 31.419469 ] ] ] ] } },
{ "type": "Feature", "properties": { "id": 232, "start_point_id": 7835, "end_point_id": 7858 }, "geometry": { "type": "MultiPolygon", "coordinates": [ [ [ [ 120.650998, 31.4192 ], [ 120.650852, 31.418905 ], [ 120.650717, 31.418955 ], [ 120.650863, 31.419249 ] ] ] ] } },
{ "type": "Feature", "properties": { "id": 233, "start_point_id": 7859, "end_point_id": 7941 }, "geometry": { "type": "MultiPolygon", "coordinates": [ [ [ [ 120.650853, 31.418907 ], [ 120.650299, 31.417819 ], [ 120.65016, 31.417861 ], [ 120.650719, 31.418958 ] ] ] ] } },
{ "type": "Feature", "properties": { "id": 234, "start_point_id": 7942, "end_point_id": 7974 }, "geometry": { "type": "MultiPolygon", "coordinates": [ [ [ [ 120.650298, 31.417818 ], [ 120.650136, 31.417511 ], [ 120.650057, 31.41739 ], [ 120.64993, 31.417455 ], [ 120.650003, 31.417566 ], [ 120.650163, 31.417868 ] ] ] ] } },
{ "type": "Feature", "properties": { "id": 235, "start_point_id": 7975, "end_point_id": 7998 }, "geometry": { "type": "MultiPolygon", "coordinates": [ [ [ [ 120.650058, 31.417392 ], [ 120.649896, 31.417123 ], [ 120.64977, 31.417189 ], [ 120.649799, 31.417227 ], [ 120.649872, 31.417364 ], [ 120.649932, 31.417457 ] ] ] ] } },
{ "type": "Feature", "properties": { "id": 236, "start_point_id": 7999, "end_point_id": 8030 }, "geometry": { "type": "MultiPolygon", "coordinates": [ [ [ [ 120.649905, 31.417132 ], [ 120.649696, 31.416739 ], [ 120.649562, 31.416792 ], [ 120.649769, 31.417182 ] ] ] ] } },
{ "type": "Feature", "properties": { "id": 237, "start_point_id": 8031, "end_point_id": 8072 }, "geometry": { "type": "MultiPolygon", "coordinates": [ [ [ [ 120.649697, 31.416741 ], [ 120.649394, 31.416204 ], [ 120.649261, 31.416257 ], [ 120.649564, 31.416795 ] ] ] ] } },
{ "type": "Feature", "properties": { "id": 238, "start_point_id": 8073, "end_point_id": 8103 }, "geometry": { "type": "MultiPolygon", "coordinates": [ [ [ [ 120.649396, 31.416207 ], [ 120.649188, 31.415802 ], [ 120.649052, 31.415851 ], [ 120.649262, 31.416259 ] ] ] ] } },
{ "type": "Feature", "properties": { "id": 239, "start_point_id": 8104, "end_point_id": 8125 }, "geometry": { "type": "MultiPolygon", "coordinates": [ [ [ [ 120.649189, 31.415804 ], [ 120.649057, 31.415543 ], [ 120.648922, 31.415593 ], [ 120.649054, 31.415854 ] ] ] ] } },
{ "type": "Feature", "properties": { "id": 240, "start_point_id": 8126, "end_point_id": 8141 }, "geometry": { "type": "MultiPolygon", "coordinates": [ [ [ [ 120.649059, 31.415546 ], [ 120.64892, 31.415271 ], [ 120.648785, 31.415321 ], [ 120.648924, 31.415596 ] ] ] ] } },
{ "type": "Feature", "properties": { "id": 241, "start_point_id": 8142, "end_point_id": 8150 }, "geometry": { "type": "MultiPolygon", "coordinates": [ [ [ [ 120.648921, 31.415273 ], [ 120.648852, 31.41514 ], [ 120.648718, 31.415191 ], [ 120.648786, 31.415323 ] ] ] ] } },
{ "type": "Feature", "properties": { "id": 242, "start_point_id": 8151, "end_point_id": 8174 }, "geometry": { "type": "MultiPolygon", "coordinates": [ [ [ [ 120.648854, 31.415143 ], [ 120.64869, 31.414822 ], [ 120.648555, 31.414872 ], [ 120.648719, 31.415193 ] ] ] ] } },
{ "type": "Feature", "properties": { "id": 243, "start_point_id": 8175, "end_point_id": 8207 }, "geometry": { "type": "MultiPolygon", "coordinates": [ [ [ [ 120.648691, 31.414825 ], [ 120.648529, 31.414515 ], [ 120.648399, 31.414574 ], [ 120.648556, 31.414874 ] ] ] ] } },
{ "type": "Feature", "properties": { "id": 244, "start_point_id": 8208, "end_point_id": 8219 }, "geometry": { "type": "MultiPolygon", "coordinates": [ [ [ [ 120.648529, 31.414515 ], [ 120.648496, 31.414472 ], [ 120.648446, 31.414433 ], [ 120.648383, 31.414409 ], [ 120.648316881373674, 31.414406460869408 ], [ 120.648329488422831, 31.414532096635082 ], [ 120.64836, 31.414535 ], [ 120.648402, 31.414579 ], [ 120.648529, 31.414515 ] ] ] ] } },
{ "type": "Feature", "properties": { "id": 245, "start_point_id": 8220, "end_point_id": 8227 }, "geometry": { "type": "MultiPolygon", "coordinates": [ [ [ [ 120.648317, 31.414405 ], [ 120.64826, 31.414416 ], [ 120.648182, 31.414448 ], [ 120.648249, 31.41456 ], [ 120.648329923148665, 31.414529923005915 ], [ 120.648317, 31.414405 ] ] ] ] } },
{ "type": "Feature", "properties": { "id": 246, "start_point_id": 8228, "end_point_id": 8275 }, "geometry": { "type": "MultiPolygon", "coordinates": [ [ [ [ 120.648183, 31.414447 ], [ 120.647942, 31.414561 ], [ 120.647547, 31.414762 ], [ 120.647622, 31.41487 ], [ 120.648016, 31.41467 ], [ 120.648253, 31.414559 ] ] ] ] } },
{ "type": "Feature", "properties": { "id": 247, "start_point_id": 8276, "end_point_id": 8301 }, "geometry": { "type": "MultiPolygon", "coordinates": [ [ [ [ 120.64755, 31.41476 ], [ 120.647202, 31.414938 ], [ 120.647278, 31.415046 ], [ 120.647625, 31.414869 ] ] ] ] } },
{ "type": "Feature", "properties": { "id": 248, "start_point_id": 8302, "end_point_id": 8347 }, "geometry": { "type": "MultiPolygon", "coordinates": [ [ [ [ 120.647205, 31.414937 ], [ 120.646632, 31.415238 ], [ 120.646709, 31.415346 ], [ 120.647281, 31.415045 ] ] ] ] } },
{ "type": "Feature", "properties": { "id": 249, "start_point_id": 8348, "end_point_id": 8364 }, "geometry": { "type": "MultiPolygon", "coordinates": [ [ [ [ 120.646635, 31.415237 ], [ 120.646391, 31.415365 ], [ 120.646467, 31.415473 ], [ 120.646711, 31.415345 ] ] ] ] } },
{ "type": "Feature", "properties": { "id": 250, "start_point_id": 8365, "end_point_id": 8409 }, "geometry": { "type": "MultiPolygon", "coordinates": [ [ [ [ 120.646394, 31.415363 ], [ 120.645664, 31.415745 ], [ 120.64574, 31.415853 ], [ 120.64647, 31.415471 ] ] ] ] } },
{ "type": "Feature", "properties": { "id": 251, "start_point_id": 8410, "end_point_id": 8440 }, "geometry": { "type": "MultiPolygon", "coordinates": [ [ [ [ 120.645666, 31.415744 ], [ 120.645268, 31.415952 ], [ 120.645343, 31.41606 ], [ 120.645743, 31.415852 ] ] ] ] } },
{ "type": "Feature", "properties": { "id": 252, "start_point_id": 8441, "end_point_id": 8484 }, "geometry": { "type": "MultiPolygon", "coordinates": [ [ [ [ 120.64527, 31.415951 ], [ 120.644703, 31.416253 ], [ 120.644785, 31.416358 ], [ 120.645346, 31.416059 ] ] ] ] } },
{ "type": "Feature", "properties": { "id": 253, "start_point_id": 8485, "end_point_id": 8502 }, "geometry": { "type": "MultiPolygon", "coordinates": [ [ [ [ 120.644705, 31.416251 ], [ 120.644417, 31.41642 ], [ 120.644498, 31.416525 ], [ 120.644788, 31.416356 ] ] ] ] } },
{ "type": "Feature", "properties": { "id": 254, "start_point_id": 8503, "end_point_id": 8575 }, "geometry": { "type": "MultiPolygon", "coordinates": [ [ [ [ 120.644419, 31.416419 ], [ 120.643424, 31.41695 ], [ 120.643504, 31.417056 ], [ 120.644501, 31.416524 ] ] ] ] } }
]
}
